#aP1999  8  1  0  0  0.00000000      96 ORBIT ITR96 HLM  IGS
## 1021      0.00000000   900.00000000 51391 0.0000000000000
+   27     1  2  3  4  5  6  7  8  9 10 13 14 15 16 17 18 19
+         21 22 23 24 25 26 27 29 30 31  0  0  0  0  0  0  0
+          0  0  0  0  0  0  0  0  0  0  0  0  0  0  0  0  0
+          0  0  0  0  0  0  0  0  0  0  0  0  0  0  0  0  0
+          0  0  0  0  0  0  0  0  0  0  0  0  0  0  0  0  0
++         5  4  4  4  4  4  4  4  4  4  5  4  4  4  4  5  4
++         4  4  5  5  4  5  4  4  4  4  0  0  0  0  0  0  0
++         0  0  0  0  0  0  0  0  0  0  0  0  0  0  0  0  0
++         0  0  0  0  0  0  0  0  0  0  0  0  0  0  0  0  0
++         0  0  0  0  0  0  0  0  0  0  0  0  0  0  0  0  0
%c cc cc ccc ccc cccc cccc cccc cccc ccccc ccccc ccccc ccccc
%c cc cc ccc ccc cccc cccc cccc cccc ccccc ccccc ccccc ccccc
%f  0.0000000  0.000000000  0.00000000000  0.000000000000000
%f  0.0000000  0.000000000  0.00000000000  0.000000000000000
%i    0    0    0    0      0      0      0      0         0
%i    0    0    0    0      0      0      0      0         0
/* FINAL ORBIT COMBINATION FROM WEIGHTED AVERAGE OF:
/* cod emr esa gfz jpl ngs sio
/* REFERENCED TO GPS CLOCK AND TO WEIGHTED MEAN POLE:
/* CLK ANT Z-OFFSET (M): II/IIA 1.023; IIR 0.000
*  1999  8  1 21 15  0.0000
P  1 -23264.454029 -11320.398204  -5958.996285     93.383508
P  2    821.191755  17098.365026  20712.691943    -92.427322
P  3 -23249.713057 -12549.425253   2598.263844     28.115669
P  4   6848.944680  21956.307724 -13017.443964    485.918298
P  5  23735.724682 -11749.642843   1350.730119    210.172316
P  6   8170.940352 -12976.880919 -21539.904865      0.026972
P  7  10937.928808  19546.525650  14779.090348    574.761207
P  8  10563.720385 -21060.011295  12061.373756     13.917487
P  9  15156.410776  -7301.700387  20328.138519     -4.582967
P 10  20764.428275   2353.452128 -16487.384003     39.110396
P 13  15303.471579  19046.493398 -10449.343193    -63.467783
P 14 -23524.747598  12088.010558  -2576.185552     28.289721
P 15 -14483.621297  10128.083385  19577.906361    710.368014
P 16 -16410.897125  16457.527630 -12728.929461    128.474911
P 17   6775.515648 -25139.642480  -3694.250549   -217.428357
P 18  -5562.973126  14770.111931 -21591.410994     25.791251
P 19  -7023.322875  23687.498949  -9376.056059     22.556792
P 21  -4416.200534 -14551.561495  21960.005371     25.985363
P 22 -16371.588691  -7679.204398 -19787.756393    432.085974
P 23  11013.616459 -17413.849205  17028.821845      3.410328
P 24  12537.698790  10828.905028 -20512.775248    590.628852
P 25  -9153.205236 -21332.867582 -12930.686029      1.864829
P 26  23162.404351   5263.294520  12443.427542    661.043876
P 27   1600.763341  25948.240916   3512.735743     27.580944
P 29 -10874.890538 -19374.108110  14854.086982    520.472476
P 30  17638.520791 -17143.524950 -10174.012886    -26.967219
P 31 -22177.129400  -2145.522004  14472.719687     22.318025
*  1999  8  1 21 30  0.0000
P  1 -23574.548321 -11829.630501  -3173.764982     93.112500
P  2  -1151.488897  18150.349528  19705.460348    -92.384112
P  3 -23217.073573 -12879.929704   -222.578915     28.004483
P  4   6582.354584  23310.872550 -10573.916478    485.887107
P  5  23626.585393 -11311.463405   4141.715602    210.224856
P  6  10263.857286 -11625.413296 -21439.861219     -0.103388
P  7   9355.580774  18787.566062  16732.869594    574.745618
P  8  10676.202886 -19500.040138  14311.731859     14.046672
P  9  15197.900364  -4892.161854  21037.988646     -4.405866
P 10  19077.542789   3397.311399 -18234.275139     39.046902
P 13  14058.367500  18513.291080 -12859.947669    -63.627988
P 14 -23728.191341  11955.336188    306.694718     28.335467
P 15 -14334.640062   7782.059814  20715.012405    710.370933
P 16 -17684.383414  16835.392783 -10267.616478    128.498645
P 17   6913.552577 -24534.970799  -6546.951303   -217.443845
P 18  -7686.099465  13581.651852 -21728.913763     25.729059
P 19  -7384.582052  22464.860921 -11799.537814     22.451519
P 21  -2226.037094 -15632.920554  21481.501337     25.996916
P 22 -14453.584515  -8911.381406 -20704.534474    432.089265
P 23  12681.115259 -18035.826218  15035.701446      3.468739
P 24  12308.322297  13141.077573 -19286.701021    590.578342
P 25  -8915.262046 -22706.692292 -10602.503482      2.042828
P 26  24135.681296   6093.176189  10020.800166    660.990370
P 27   1239.758039  26178.962456    674.578689     27.626100
P 29  -9265.044594 -18610.388839  16808.894100    520.836427
P 30  18644.161469 -17386.119730  -7600.312368    -26.867294
P 31 -23400.957532  -3119.764784  12255.097731     22.714764
*  1999  8  1 21 45  0.0000
P  1 -23635.377373 -12161.673905   -333.929820     93.218641
P  2  -2969.973540  19225.689752  18368.728099    -92.473301
P  3 -22917.735966 -13065.488154  -3039.589523     28.107346
P  4   6388.813799  24388.322037  -7945.703532    485.891108
P  5  23279.335429 -10696.141563   6861.093671    210.163003
P  6  12391.568587 -10398.798318 -20966.739492     -0.099817
P  7   7556.835420  18018.011056  18407.646353    574.892587
P  8  10868.729907 -17703.429605  16312.399036     14.081286
P  9  15358.581814  -2431.208567  21379.666590     -4.381343
P 10  17295.141124   4625.574073 -19669.064344     38.972112
P 13  12557.726179  17921.406573 -15049.374323    -63.670150
P 14 -23652.364080  11676.724036   3184.300993     28.457097
P 15 -14310.808830   5321.116118  21487.753018    710.375897
P 16 -18681.684032  17142.444177  -7628.145832    128.695688
P 17   7058.774146 -23619.897750  -9283.856895   -217.424252
P 18  -9861.569235  12505.151828 -21500.506837     25.595686
P 19  -7825.169591  20998.639634 -14016.890892     22.436888
P 21   -155.050286 -16795.283152  20637.537519     26.114588
P 22 -12526.004814 -10284.781644 -21273.591182    432.051855
P 23  14107.625149 -18632.369684  12787.504981      3.301510
P 24  12209.474119  15300.441384 -17722.097799    590.532195
P 25  -8725.945459 -23816.720909  -8092.612720      1.859757
P 26  24906.062227   6732.866207   7430.908401    661.104931
P 27    871.933861  26101.162550  -2175.636925     27.583258
P 29  -7437.565426 -17838.210061  18480.047476    520.537300
P 30  19385.462473 -17520.126075  -4896.424413    -27.075407
P 31 -24439.668348  -3905.231303   9827.467959     22.510900
*  1999  8  1 22  0  0.0000
P  1 -23425.605349 -12346.793057   2511.653983     93.304501
P  2  -4610.687089  20287.018759  16722.784911    -92.461939
P  3 -22338.896068 -13139.690447  -5804.255609     28.064574
P  4   6233.092967  25167.341301  -5178.765046    485.794364
P  5  22723.264609  -9882.346509   9461.873263    210.208456
P  6  14509.070318  -9315.176485 -20129.640058     -0.176931
P  7   5565.028032  17274.386372  19775.572569    574.737091
P  8  11167.005577 -15705.110231  18027.619809     14.257445
P  9  15640.700958     32.687804  21348.297863     -4.433732
P 10  15463.561586   6031.888438 -20766.784334     39.122658
P 13  10815.676908  17310.896613 -16979.758870    -63.594462
P 14 -23319.401716  11220.461284   6007.152810     28.328341
P 15 -14424.103778   2795.176451  21882.288481    710.379196
P 16 -19401.370951  17337.920937  -4856.162509    128.473262
P 17   7249.277695 -22411.314653 -11857.015400   -217.287477
P 18 -12046.256685  11558.272484 -20910.198821     25.751776
P 19  -8369.290335  19320.374519 -15989.504386     22.525322
P 21   1762.022672 -18004.210018  19440.403507     26.083961
P 22 -10629.501264 -11780.173096 -21484.067486    432.053759
P 23  15279.884278 -19161.706658  10321.245650      3.407896
P 24  12219.992506  17263.190554 -15847.137370    590.582062
P 25  -8552.307563 -24645.632432  -5444.422745      1.885480
P 26  25441.038349   7203.411095   4717.180680    661.213593
P 27    461.964813  25718.544350  -4986.865150     27.808024
P 29  -5416.871027 -17094.502254  19839.553894    520.725161
P 30  19868.924288 -17508.910671  -2108.505530    -27.019890
P 31 -25257.601216  -4518.725090   7231.988712     22.459362
*  1999  8  1 22 15  0.0000
P  1 -22931.622652 -12419.453465   5314.211650     93.323321
P  2  -6056.961557  21294.104973  14793.334647    -92.612956
P  3 -21475.953261 -13138.717454  -8469.008252     28.103898
P  4   6077.270374  25635.480778  -2321.466629    485.805153
P  5  21992.765427  -8855.522456  11899.146066    210.364091
P  6  16569.840577  -8384.728852 -18943.974416      0.083953
P  7   3410.357824  16589.217065  20813.752695    574.824487
P  8  11590.385335 -13545.914839  19426.525399     14.172633
P  9  16038.644780   2451.493094  20945.614470     -4.448074
P 10  13628.442949   7601.505886 -21508.164291     38.902316
P 13   8854.641020  16719.674396 -18617.639740    -63.730059
P 14 -22758.554333  10560.507954   8726.683641     28.317826
P 15 -14678.079068    256.128009  21891.568343    710.381990
P 16 -19850.905826  17382.960031  -1999.737504    128.775690
P 17   7519.829730 -20934.885052 -14221.715034   -217.461099
P 18 -14195.049005  10751.159035 -19967.950971     25.709793
P 19  -9035.313383  17467.255666 -17683.148171     22.562401
P 21   3496.871951 -19220.233698  17908.585336     26.101709
P 22  -8801.518238 -13371.405544 -21330.963559    432.025653
P 23  16193.120052 -19581.572922   7678.039070      3.229962
P 24  12311.969160  18991.599290 -13695.368880    590.636410
P 25  -8359.418948 -25184.208731  -2703.440039      1.768388
P 26  25713.979750   7531.803669   1924.925164    661.159879
P 27    -23.797069  25043.842900  -7708.698622     27.660631
P 29  -3234.317370 -16412.054575  20864.594660    520.711406
P 30  20108.915643 -17319.064622    715.662067    -26.876220
P 31 -25824.607194  -4983.644377   4513.380198     22.490503
EOF
